     2.100          NAVIGATION                              RINEX VERSION / TYPE
fic2rin                                 01/23/2010 01:50:02 PGM / RUN BY / DATE
                                                            END OF HEADER
17 10  1 22 10  0  0.0  .123297329992D-03  .318323145621D-11  .000000000000D+00
     .640000000000D+02 -.319687500000D+02  .450483050142D-08  .240661247693D+01
    -.169686973095D-05  .502793432679D-02  .946037471294D-05  .515377871132D+04
     .468000000000D+06 -.108033418655D-06  .597230733606D+00 -.428408384323D-07
     .960224328900D+00  .197625000000D+03 -.261631576954D+01 -.789961476495D-08
    -.199294015681D-09  .100000000000D+01  .156700000000D+04  .000000000000D+00
     .340000000000D+01  .000000000000D+00 -.102445483208D-07  .640000000000D+02
     .460806000000D+06  .400000000000D+01
19 10  1 22 10  0  0.0 -.110599212348D-04 -.227373675443D-11  .000000000000D+00
     .770000000000D+02 -.361562500000D+02  .468055210664D-08  .178493811432D+01
    -.165402889252D-05  .606224371586D-02  .914931297302D-05  .515369289398D+04
     .468000000000D+06  .242143869400D-07  .652577853116D+00  .689178705215D-07
     .957845290558D+00  .199968750000D+03 -.181258562170D+00 -.801033366255D-08
    -.293940815243D-09  .100000000000D+01  .156700000000D+04  .000000000000D+00
     .240000000000D+01  .000000000000D+00 -.144354999065D-07  .770000000000D+02
     .460806000000D+06  .400000000000D+01
20 10  1 22 10  0  0.0  .628307461739D-04 -.795807864051D-12  .000000000000D+00
     .500000000000D+02  .357500000000D+02  .509735518245D-08 -.227895789862D+01
     .190734863281D-05  .425049918704D-02  .447966158390D-05  .515369335556D+04
     .468000000000D+06  .540167093277D-07  .264200008621D+01  .931322574615D-08
     .938807366215D+00  .281500000000D+03  .128607956608D+01 -.841285042899D-08
    -.578595529398D-10  .100000000000D+01  .156700000000D+04  .000000000000D+00
     .240000000000D+01  .000000000000D+00 -.745058059692D-08  .500000000000D+02
     .460806000000D+06  .400000000000D+01
21 10  1 22 10  0  0.0 -.356198288500D-04 -.250111042988D-11  .000000000000D+00
     .490000000000D+02  .673125000000D+02  .504128141818D-08 -.128464207059D+01
     .336766242981D-05  .158570518252D-01  .897981226444D-05  .515371588135D+04
     .468000000000D+06  .376254320145D-06  .163818056448D+01 -.156462192535D-06
     .932635623514D+00  .187843750000D+03 -.253228480856D+01 -.817891211309D-08
     .585738684082D-10  .100000000000D+01  .156700000000D+04  .000000000000D+00
     .240000000000D+01  .000000000000D+00 -.121071934700D-07  .490000000000D+02
     .460806000000D+06  .400000000000D+01
22 10  1 22 10  0  0.0  .180964358151D-03 -.682121026330D-12  .000000000000D+00
     .530000000000D+02  .441250000000D+02  .514735726523D-08  .283215397003D+01
     .222213566303D-05  .510717416182D-02  .439584255219D-05  .515366037369D+04
     .468000000000D+06  .558793544769D-08  .270107911412D+01 -.316649675369D-07
     .936728866837D+00  .281687500000D+03 -.188886322658D+01 -.842392231875D-08
    -.307155651409D-10  .100000000000D+01  .156700000000D+04  .000000000000D+00
     .340000000000D+01  .000000000000D+00 -.176951289177D-07  .530000000000D+02
     .460806000000D+06  .400000000000D+01
23 10  1 22 10  0  0.0  .381778925657D-03 -.909494701773D-12  .000000000000D+00
     .109000000000D+03 -.283437500000D+02  .422589031101D-08  .124085502483D+01
    -.141561031342D-05  .632973061875D-02  .699236989021D-05  .515373537254D+04
     .468000000000D+06  .167638063431D-07 -.255805896888D+01  .106170773506D-06
     .969177380231D+00  .248468750000D+03  .301121969261D+01 -.800069040373D-08
    -.194650965137D-09  .100000000000D+01  .156700000000D+04  .000000000000D+00
     .340000000000D+01  .000000000000D+00 -.200234353542D-07  .109000000000D+03
     .460806000000D+06  .400000000000D+01
24 10  1 22 10  0  0.0  .255897175521D-03  .318323145621D-11  .000000000000D+00
     .690000000000D+02  .700625000000D+02  .468733810359D-08 -.276624389588D+01
     .346451997757D-05  .593542458955D-02  .959262251854D-05  .515489356041D+04
     .468000000000D+06 -.335276126862D-07  .167441340263D+01  .875443220139D-07
     .949239857822D+00  .188468750000D+03 -.476859834235D+00 -.801569102856D-08
    -.289297764699D-10  .100000000000D+01  .156700000000D+04  .000000000000D+00
     .485000000000D+01  .000000000000D+00 -.139698386192D-08  .690000000000D+02
     .460806000000D+06  .400000000000D+01
25 10  1 22 10  0  0.0  .844448804855D-04  .761701812735D-11  .000000000000D+00
     .490000000000D+02 -.468750000000D+00  .409445626482D-08 -.206443531938D+01
     .178813934326D-06  .114888765384D-01  .799819827080D-05  .515369094467D+04
     .468000000000D+06  .130385160446D-07 -.161020358454D+01  .253319740295D-06
     .972023030924D+00  .230468750000D+03 -.120597273655D+01 -.780103923031D-08
     .248224625266D-09  .100000000000D+01  .156700000000D+04  .000000000000D+00
     .240000000000D+01  .630000000000D+02 -.745058059692D-08  .490000000000D+02
     .460806000000D+06  .400000000000D+01
26 10  1 22 10  0  0.0 -.116899609566D-04 -.318323145621D-11  .000000000000D+00
     .130000000000D+02 -.320625000000D+02  .380158692278D-08 -.813647115897D+00
    -.123679637909D-05  .196667650016D-01  .742264091969D-05  .515362357521D+04
     .468000000000D+06  .279396772385D-07 -.250327424189D+01  .400468707085D-06
     .991707354398D+00  .252843750000D+03  .105717749105D+01 -.802997733793D-08
    -.144291724615D-09  .100000000000D+01  .156700000000D+04  .000000000000D+00
     .240000000000D+01  .000000000000D+00 -.605359673500D-08  .130000000000D+02
     .460806000000D+06  .400000000000D+01
27 10  1 22 10  0  0.0  .119339209050D-03  .329691829393D-11  .000000000000D+00
     .630000000000D+02 -.170937500000D+02  .401552440557D-08  .200357354145D+01
    -.110641121864D-05  .217556809075D-01  .825524330139D-05  .515368469620D+04
     .468000000000D+06  .348314642906D-06 -.157301677311D+01 -.163912773132D-06
     .976909061738D+00  .223437500000D+03 -.147860036797D+01 -.756352933707D-08
     .196079596074D-09  .100000000000D+01  .156700000000D+04  .000000000000D+00
     .240000000000D+01  .000000000000D+00 -.419095158577D-08  .630000000000D+02
     .460806000000D+06  .400000000000D+01
28 10  1 22 10  0  0.0 -.232914462686D-04  .568434188608D-12  .000000000000D+00
     .103000000000D+03 -.344375000000D+02  .453268880468D-08  .304564119095D+01
    -.182166695595D-05  .157153569162D-01  .553578138351D-05  .515365939140D+04
     .468000000000D+06  .145286321640D-06 -.437396928549D+00 -.219792127609D-06
     .969161076009D+00  .275593750000D+03 -.198767040478D+01 -.786068457192D-08
     .775032283206D-10  .100000000000D+01  .156700000000D+04  .000000000000D+00
     .340000000000D+01  .000000000000D+00 -.107102096081D-07  .103000000000D+03
     .460806000000D+06  .400000000000D+01
29 10  1 22 10  0  0.0  .918996520340D-04  .295585778076D-11  .000000000000D+00
     .220000000000D+02 -.288125000000D+02  .458876256895D-08 -.105380309641D+01
    -.152550637722D-05  .287193548866D-02  .922195613384D-05  .515380756950D+04
     .468000000000D+06 -.521540641785D-07  .605442242002D+00 -.447034835815D-07
     .960514381668D+00  .198687500000D+03 -.131692703121D+01 -.804069206996D-08
    -.264296723305D-09  .100000000000D+01  .156700000000D+04  .000000000000D+00
     .240000000000D+01  .000000000000D+00 -.884756445885D-08  .220000000000D+02
     .460806000000D+06  .400000000000D+01
30 10  1 22 10  0  0.0  .212821178138D-03  .329691829393D-11  .000000000000D+00
     .250000000000D+02 -.252187500000D+02  .492234789269D-08 -.273530605168D+01
    -.126287341118D-05  .119502882008D-01  .563263893127D-05  .515378666306D+04
     .468000000000D+06  .186264514923D-06 -.514151134584D+00  .242143869400D-07
     .954805507710D+00  .266437500000D+03  .147328631512D+01 -.808247952486D-08
     .233938315898D-09  .100000000000D+01  .156700000000D+04  .000000000000D+00
     .240000000000D+01  .000000000000D+00 -.791624188423D-08  .250000000000D+02
     .460806000000D+06  .400000000000D+01
31 10  1 22 10  0  0.0 -.544511713088D-04  .147792889038D-11  .000000000000D+00
     .240000000000D+02 -.987500000000D+01  .420124642735D-08 -.410920773825D+00
    -.705942511559D-06  .755827839021D-02  .823475420475D-05  .515360483551D+04
     .468000000000D+06 -.912696123123D-07 -.151713876795D+01 -.447034835815D-07
     .975353890582D+00  .229375000000D+03 -.111296679803D+01 -.800783355841D-08
     .328227957726D-09  .100000000000D+01  .156700000000D+04  .000000000000D+00
     .240000000000D+01  .000000000000D+00 -.130385160446D-07  .240000000000D+02
     .460806000000D+06  .400000000000D+01
32 10  1 22 10  0  0.0  .111645087600D-03 -.807176547823D-11  .000000000000D+00
     .124000000000D+03  .284062500000D+02  .477805616808D-08  .406459087270D+00
     .132806599140D-05  .129399758298D-01  .485032796860D-05  .515360789490D+04
     .468000000000D+06 -.335276126862D-07  .275655999409D+01 -.154599547386D-06
     .960862579578D+00  .289468750000D+03 -.103375359786D+01 -.850571143988D-08
    -.122862260563D-09  .100000000000D+01  .156700000000D+04  .000000000000D+00
     .240000000000D+01  .000000000000D+00 -.325962901115D-08  .124000000000D+03
     .460806000000D+06  .400000000000D+01
23 10  1 22  9 59 44.0  .381777994335D-03 -.909494701773D-12  .000000000000D+00
     .400000000000D+01 -.283437500000D+02  .422624746874D-08  .123852151104D+01
    -.141561031342D-05  .632973259781D-02  .699236989021D-05  .515373537445D+04
     .467984000000D+06  .167638063431D-07 -.255805884306D+01  .106170773506D-06
     .969177372916D+00  .248468750000D+03  .301121958289D+01 -.800104756146D-08
    -.194650965137D-09  .100000000000D+01  .156700000000D+04  .000000000000D+00
     .240000000000D+01  .000000000000D+00 -.200234353542D-07  .400000000000D+01
     .465126000000D+06  .400000000000D+01
